{"type": "FeatureCollection", "features": [ {"type": "Feature", "properties": {"norad_id": 33690, "name": "FENGYUN 1C DEB", "group": "fengyun-1c-debris", "lat": -50.13680159391962, "lon": -97.28960172452747, "alt_km": 746.5704756411833, "timestamp": "2025-12-20T14:38:02.256469+00:00", "meta": {"OBJECT_NAME": "FENGYUN 1C DEB", "OBJECT_ID": "1999-025DGB", "EPOCH": "2025-12-18T05:19:31.905984", "MEAN_MOTION": 14.51538272, "ECCENTRICITY": 0.00300479, "INCLINATION": 98.6138, "RA_OF_ASC_NODE": 90.7228, "ARG_OF_PERICENTER": 32.2004, "MEAN_ANOMALY": 328.1018, "EPHEMERIS_TYPE": 0, "CLASSIFICATION_TYPE": "U", "NORAD_CAT_ID": 33690, "ELEMENT_SET_NO": 999, "REV_AT_EPOCH": 93299, "BSTAR": 0.0017880769, "MEAN_MOTION_DOT": 7.153e-05, "MEAN_MOTION_DDOT": 0}, "tle": {"line1": "1 33690U 99025DGB 25352.22189706  .00007153  00000+0  17881-2 0  9990", "line2": "2 33690  98.6138  90.7228 0030047  32.2004 328.1018 14.51538272932994"}}, "geometry": {"type": "Point", "coordinates": [-97.28960172452747, -50.13680159391962]}}, {"type": "Feature", "properties": {"norad_id": 33693, "name": "FENGYUN 1C DEB", "group": "fengyun-1c-debris", "lat": -14.137951716960846, "lon": 174.36688938668718, "alt_km": 833.9855000825164, "timestamp": "2025-12-20T14:38:02.256479+00:00", "meta": {"OBJECT_NAME": "FENGYUN 1C DEB", "OBJECT_ID": "1999-025DGE", "EPOCH": "2025-12-19T10:41:04.068672", "MEAN_MOTION": 13.71331151, "ECCENTRICITY": 0.022603, "INCLINATION": 99.2143, "RA_OF_ASC_NODE": 170.9053, "ARG_OF_PERICENTER": 341.2495, "MEAN_ANOMALY": 18.0425, "EPHEMERIS_TYPE": 0, "CLASSIFICATION_TYPE": "U", "NORAD_CAT_ID": 33693, "ELEMENT_SET_NO": 999, "REV_AT_EPOCH": 88323, "BSTAR": 0.0011919, "MEAN_MOTION_DOT": 1.24e-05, "MEAN_MOTION_DDOT": 0}, "tle": {"line1": "1 33693U 99025DGE 25353.44518598  .00001240  00000+0  11919-2 0  9990", "line2": "2 33693  99.2143 170.9053 0226030 341.2495  18.0425 13.71331151883230"}}, "geometry": {"type": "Point", "coordinates": [174.36688938668718, -14.137951716960846]}}, {"type": "Feature", "properties": {"norad_id": 33698, "name": "FENGYUN 1C DEB", "group": "fengyun-1c-debris", "lat": -42.382092229728514, "lon": 126.9737556303258, "alt_km": 627.6951683712559, "timestamp": "2025-12-20T14:38:02.256489+00:00", "meta": {"OBJECT_NAME": "FENGYUN 1C DEB", "OBJECT_ID": "1999-025DGK", "EPOCH": "2025-12-17T03:08:00.198240", "MEAN_MOTION": 14.55728142, "ECCENTRICITY": 0.01375233, "INCLINATION": 99.6214, "RA_OF_ASC_NODE": 311.8731, "ARG_OF_PERICENTER": 204.7443, "MEAN_ANOMALY": 154.7112, "EPHEMERIS_TYPE": 0, "CLASSIFICATION_TYPE": "U", "NORAD_CAT_ID": 33698, "ELEMENT_SET_NO": 999, "REV_AT_EPOCH": 95700, "BSTAR": 0.00018900587, "MEAN_MOTION_DOT": 8.7e-06, "MEAN_MOTION_DDOT": 0}, "tle": {"line1": "1 33698U 99025DGK 25351.13055785  .00000870  00000+0  18901-3 0  9990", "line2": "2 33698  99.6214 311.8731 0137523 204.7443 154.7112 14.55728142957002"}}, "geometry": {"type": "Point", "coordinates": [126.9737556303258, -42.382092229728514]}}, {"type": "Feature", "properties": {"norad_id": 33710, "name": "FENGYUN 1C DEB", "group": "fengyun-1c-debris", "lat": 13.53192276183807, "lon": -84.35890709956679, "alt_km": 823.8761099097928, "timestamp": "2025-12-20T14:38:02.256499+00:00", "meta": {"OBJECT_NAME": "FENGYUN 1C DEB", "OBJECT_ID": "1999-025DGX", "EPOCH": "2025-12-19T05:32:00.161088", "MEAN_MOTION": 14.11664472, "ECCENTRICITY": 0.0055783, "INCLINATION": 98.9796, "RA_OF_ASC_NODE": 92.0803, "ARG_OF_PERICENTER": 129.558, "MEAN_ANOMALY": 231.0538, "EPHEMERIS_TYPE": 0, "CLASSIFICATION_TYPE": "U", "NORAD_CAT_ID": 33710, "ELEMENT_SET_NO": 999, "REV_AT_EPOCH": 67748, "BSTAR": 0.00074956, "MEAN_MOTION_DOT": 1.339e-05, "MEAN_MOTION_DDOT": 0}, "tle": {"line1": "1 33710U 99025DGX 25353.23055742  .00001339  00000+0  74956-3 0  9994", "line2": "2 33710  98.9796  92.0803 0055783 129.5580 231.0538 14.11664472677484"}}, "geometry": {"type": "Point", "coordinates": [-84.35890709956679, 13.53192276183807]}}, {"type": "Feature", "properties": {"norad_id": 33711, "name": "FENGYUN 1C DEB", "group": "fengyun-1c-debris", "lat": 8.922923986368684, "lon": 46.66784922252568, "alt_km": 825.5956838709126, "timestamp": "2025-12-20T14:38:02.256509+00:00", "meta": {"OBJECT_NAME": "FENGYUN 1C DEB", "OBJECT_ID": "1999-025DGY", "EPOCH": "2025-12-19T15:19:15.675168", "MEAN_MOTION": 14.0092675, "ECCENTRICITY": 0.0095907, "INCLINATION": 99.1817, "RA_OF_ASC_NODE": 47.1468, "ARG_OF_PERICENTER": 29.1274, "MEAN_ANOMALY": 124.0641, "EPHEMERIS_TYPE": 0, "CLASSIFICATION_TYPE": "U", "NORAD_CAT_ID": 33711, "ELEMENT_SET_NO": 999, "REV_AT_EPOCH": 92028, "BSTAR": 0.00031884, "MEAN_MOTION_DOT": 4.51e-06, "MEAN_MOTION_DDOT": 0}, "tle": {"line1": "1 33711U 99025DGY 25353.63837587  .00000451  00000+0  31884-3 0  9991", "line2": "2 33711  99.1817  47.1468 0095907  29.1274 124.0641 14.00926750920280"}}, "geometry": {"type": "Point", "coordinates": [46.66784922252568, 8.922923986368684]}}, {"type": "Feature", "properties": {"norad_id": 33716, "name": "FENGYUN 1C DEB", "group": "fengyun-1c-debris", "lat": 50.96882336099532, "lon": 111.49152655938944, "alt_km": 837.5361403248025, "timestamp": "2025-12-20T14:38:02.256518+00:00", "meta": {"OBJECT_NAME": "FENGYUN 1C DEB", "OBJECT_ID": "1999-025DHD", "EPOCH": "2025-12-20T00:37:45.434784", "MEAN_MOTION": 14.32676609, "ECCENTRICITY": 0.00932596, "INCLINATION": 98.8749, "RA_OF_ASC_NODE": 279.7817, "ARG_OF_PERICENTER": 336.6348, "MEAN_ANOMALY": 23.061, "EPHEMERIS_TYPE": 0, "CLASSIFICATION_TYPE": "U", "NORAD_CAT_ID": 33716, "ELEMENT_SET_NO": 999, "REV_AT_EPOCH": 65262, "BSTAR": 0.00013018796, "MEAN_MOTION_DOT": 3.24e-06, "MEAN_MOTION_DDOT": 0}, "tle": {"line1": "1 33716U 99025DHD 25354.02622031  .00000324  00000+0  13019-3 0  9995", "line2": "2 33716  98.8749 279.7817 0093259 336.6348  23.0610 14.32676609652626"}}, "geometry": {"type": "Point", "coordinates": [111.49152655938944, 50.96882336099532]}}, {"type": "Feature", "properties": {"norad_id": 33718, "name": "FENGYUN 1C DEB", "group": "fengyun-1c-debris", "lat": -63.225061163597616, "lon": -117.96340157049131, "alt_km": 829.8834431285686, "timestamp": "2025-12-20T14:38:02.256528+00:00", "meta": {"OBJECT_NAME": "FENGYUN 1C DEB", "OBJECT_ID": "1999-025DHF", "EPOCH": "2025-12-19T23:49:22.963296", "MEAN_MOTION": 14.08105706, "ECCENTRICITY": 0.00982331, "INCLINATION": 99.6592, "RA_OF_ASC_NODE": 81.1024, "ARG_OF_PERICENTER": 299.7261, "MEAN_ANOMALY": 59.4158, "EPHEMERIS_TYPE": 0, "CLASSIFICATION_TYPE": "U", "NORAD_CAT_ID": 33718, "ELEMENT_SET_NO": 999, "REV_AT_EPOCH": 69288, "BSTAR": 0.0010316732, "MEAN_MOTION_DOT": 1.786e-05, "MEAN_MOTION_DDOT": 0}, "tle": {"line1": "1 33718U 99025DHF 25353.99262689  .00001786  00000+0  10317-2 0  9991", "line2": "2 33718  99.6592  81.1024 0098233 299.7261  59.4158 14.08105706692888"}}, "geometry": {"type": "Point", "coordinates": [-117.96340157049131, -63.225061163597616]}}, {"type": "Feature", "properties": {"norad_id": 33719, "name": "FENGYUN 1C DEB", "group": "fengyun-1c-debris", "lat": -13.316322204211488, "lon": -127.53851691638248, "alt_km": 833.5437144314665, "timestamp": "2025-12-20T14:38:02.256538+00:00", "meta": {"OBJECT_NAME": "FENGYUN 1C DEB", "OBJECT_ID": "1999-025DHG", "EPOCH": "2025-12-19T10:48:35.647776", "MEAN_MOTION": 14.23499746, "ECCENTRICITY": 0.0030347, "INCLINATION": 98.7733, "RA_OF_ASC_NODE": 53.4005, "ARG_OF_PERICENTER": 61.2166, "MEAN_ANOMALY": 314.1139, "EPHEMERIS_TYPE": 0, "CLASSIFICATION_TYPE": "U", "NORAD_CAT_ID": 33719, "ELEMENT_SET_NO": 999, "REV_AT_EPOCH": 92109, "BSTAR": 0.00061462, "MEAN_MOTION_DOT": 1.36e-05, "MEAN_MOTION_DDOT": 0}, "tle": {"line1": "1 33719U 99025DHG 25353.45041259  .00001360  00000+0  61462-3 0  9997", "line2": "2 33719  98.7733  53.4005 0030347  61.2166 314.1139 14.23499746921090"}}, "geometry": {"type": "Point", "coordinates": [-127.53851691638248, -13.316322204211488]}}, {"type": "Feature", "properties": {"norad_id": 33722, "name": "FENGYUN 1C DEB", "group": "fengyun-1c-debris", "lat": 31.683814402851365, "lon": 3.3992500341566636, "alt_km": 927.9629319875112, "timestamp": "2025-12-20T14:38:02.256548+00:00", "meta": {"OBJECT_NAME": "FENGYUN 1C DEB", "OBJECT_ID": "1999-025DHK", "EPOCH": "2025-12-19T11:26:52.366272", "MEAN_MOTION": 14.21378266, "ECCENTRICITY": 0.0158398, "INCLINATION": 98.5737, "RA_OF_ASC_NODE": 7.6417, "ARG_OF_PERICENTER": 232.0902, "MEAN_ANOMALY": 126.5866, "EPHEMERIS_TYPE": 0, "CLASSIFICATION_TYPE": "U", "NORAD_CAT_ID": 33722, "ELEMENT_SET_NO": 999, "REV_AT_EPOCH": 92243, "BSTAR": 0.00047577, "MEAN_MOTION_DOT": 1.135e-05, "MEAN_MOTION_DDOT": 0}, "tle": {"line1": "1 33722U 99025DHK 25353.47699498  .00001135  00000+0  47577-3 0  9998", "line2": "2 33722  98.5737   7.6417 0158398 232.0902 126.5866 14.21378266922439"}}, "geometry": {"type": "Point", "coordinates": [3.3992500341566636, 31.683814402851365]}}, {"type": "Feature", "properties": {"norad_id": 33723, "name": "FENGYUN 1C DEB", "group": "fengyun-1c-debris", "lat": -80.70908491888879, "lon": 175.10880612000258, "alt_km": 800.09126401717, "timestamp": "2025-12-20T14:38:02.256558+00:00", "meta": {"OBJECT_NAME": "FENGYUN 1C DEB", "OBJECT_ID": "1999-025DHL", "EPOCH": "2025-12-20T04:59:52.476864", "MEAN_MOTION": 14.13346573, "ECCENTRICITY": 0.00986593, "INCLINATION": 99.1535, "RA_OF_ASC_NODE": 74.9552, "ARG_OF_PERICENTER": 309.2442, "MEAN_ANOMALY": 78.1701, "EPHEMERIS_TYPE": 0, "CLASSIFICATION_TYPE": "U", "NORAD_CAT_ID": 33723, "ELEMENT_SET_NO": 999, "REV_AT_EPOCH": 63729, "BSTAR": 0.001358788, "MEAN_MOTION_DOT": 2.624e-05, "MEAN_MOTION_DDOT": 0}, "tle": {"line1": "1 33723U 99025DHL 25354.20824626  .00002624  00000+0  13588-2 0  9992", "line2": "2 33723  99.1535  74.9552 0098659 309.2442  78.1701 14.13346573637293"}}, "geometry": {"type": "Point", "coordinates": [175.10880612000258, -80.70908491888879]}}]}